IRIDIUM 39              
1 25042U 97069D   25210.24698699  .00000603  00000+0  15247-3 0  9997
2 25042  86.3936 193.1065 0018458 159.4576 200.7375 14.49257451455312
IRIDIUM 38              
1 25043U 97069E   25209.77706093  .00000360  00000+0  11237-3 0  9997
2 25043  86.3948 215.6602 0001889  34.5670 325.5651 14.38143132452195
IRIDIUM 42              
1 25077U 97077A   25209.62536033  .00000323  00000+0  10374-3 0  9992
2 25077  86.3946 221.9432 0002153  69.9311 290.2118 14.36376113447140
IRIDIUM 44              
1 25078U 97077B   25209.95432097  .00000372  00000+0  11136-3 0  9995
2 25078  86.3966 203.6276 0000754 139.1542 220.9714 14.40266625449748
IRIDIUM 45              
1 25104U 97082A   25209.78189478  .00022460  00000+0  77993-3 0  9999
2 25104  86.3570  27.6680 0114420 174.6745 185.5749 15.23498718458620
IRIDIUM 24              
1 25105U 97082B   25210.56744897  .00000409  00000+0  11848-3 0  9996
2 25105  86.3866  62.3160 0009596 304.8677  55.1620 14.42129931449578
IRIDIUM 51              
1 25262U 98018A   25209.59590492  .00036898  00000+0  75264-3 0  9994
2 25262  86.3803  35.2840 0084085  90.8654 270.2237 15.42207863453403
IRIDIUM 57              
1 25273U 98019B   25209.84458393  .00000328  00000+0  10626-3 0  9998
2 25273  86.3987 127.8163 0002137  84.2044 275.9396 14.35915841430970
